OBJECT_NAME,OBJECT_ID,EPOCH,MEAN_MOTION,ECCENTRICITY,INCLINATION,RA_OF_ASC_NODE,ARG_OF_PERICENTER,MEAN_ANOMALY,EPHEMERIS_TYPE,CLASSIFICATION_TYPE,NORAD_CAT_ID,ELEMENT_SET_NO,REV_AT_EPOCH,BSTAR,MEAN_MOTION_DOT,MEAN_MOTION_DDOT
STARLINK-34774,2025-263A,2026-06-16T05:40:36.222240,15.27591759,.0003142,43.0015,153.8808,280.2064,79.8434,0,U,66485,999,3397,.47995E-3,.12974E-3,0
STARLINK-34844,2025-263B,2026-06-16T05:38:45.316608,15.27586910,.0003025,43.0039,153.8659,276.4035,83.6472,0,U,66486,999,3392,.42337E-3,.11409E-3,0
STARLINK-34733,2025-263C,2026-06-14T06:30:21.000096,15.27575566,.0000686,42.9946,164.9198,227.7321,132.3473,0,U,66487,999,3367,.68447E-3,.18618E-3,0
STARLINK-35515,2025-263D,2026-06-16T05:51:43.429824,15.27582391,.0002132,43.0127,153.9380,276.5009,83.5600,0,U,66488,999,3397,.44634E-3,.12041E-3,0
STARLINK-35696,2025-263E,2026-06-16T06:10:12.635616,15.27593797,.0000373,43.0060,154.0292,233.9650,126.1167,0,U,66489,999,3397,.45531E-3,.12293E-3,0
STARLINK-35693,2025-263F,2026-06-16T14:00:01.000224,15.27593578,.00007974,43.0002,151.9505,265.1546,190.2086,0,U,66490,999,576,-.42298466E-3,-.11887E-3,0
STARLINK-35663,2025-263G,2026-06-15T16:15:46.652256,15.27601428,.00004097,42.9990,157.4122,312.9465,47.1352,0,U,66491,999,3388,.65207682E-3,.17737E-3,0
STARLINK-35673,2025-263H,2026-06-16T06:06:30.689568,15.27600372,.0000722,43.0040,154.0151,135.1266,224.9644,0,U,66492,999,3397,.54589E-3,.14799E-3,0
STARLINK-35597,2025-263J,2026-06-15T16:34:15.239424,15.27587764,.00015683,43.0008,157.5217,269.9956,90.0716,0,U,66493,999,3388,.4018818E-3,.10816E-3,0
STARLINK-35689,2025-263K,2026-06-15T16:45:21.508704,15.27596541,.00020432,43.0012,157.5803,266.1636,93.8982,0,U,66494,999,3388,.47567186E-3,.12857E-3,0
STARLINK-35832,2025-263L,2026-06-16T06:00:57.342816,15.27601264,.0000368,43.0048,153.9812,184.4756,175.6092,0,U,66495,999,3397,.34364E-3,.9212E-4,0
STARLINK-35909,2025-263M,2026-06-16T06:34:15.667680,15.27598156,.0001001,43.0048,154.1550,268.5579,91.5158,0,U,66496,999,3397,.54752E-3,.14843E-3,0
STARLINK-35899,2025-263N,2026-06-16T05:46:09.111936,15.27590355,.0001953,43.0028,153.8975,276.4787,83.5842,0,U,66497,999,3397,.49089E-3,.13275E-3,0
STARLINK-35907,2025-263P,2026-06-15T16:24:59.835168,15.27591454,.00023489,43.0044,157.4743,263.1478,96.9107,0,U,66498,999,3388,.59754584E-3,.16223E-3,0
STARLINK-35816,2025-263Q,2026-06-15T16:39:50.499936,15.27580691,.00019443,43.0030,157.5518,272.9849,87.0781,0,U,66499,999,3388,.10048791E-2,.27494E-3,0
STARLINK-35894,2025-263R,2026-06-16T06:07:39.813024,15.27601246,.0000927,43.0078,157.4846,117.3461,242.7485,0,U,66500,999,3393,.49721E-3,.13454E-3,0
STARLINK-35897,2025-263S,2026-06-16T06:15:45.453600,15.27591681,.0000916,43.0018,154.0578,266.2406,93.8341,0,U,66501,999,3397,.46091E-3,.12447E-3,0
STARLINK-35922,2025-263T,2026-06-15T16:36:06.456096,15.27578790,.00016578,43.0023,157.5253,267.2426,92.8236,0,U,66502,999,3388,.4525622E-3,.12212E-3,0
STARLINK-35917,2025-263U,2026-06-16T06:26:51.715104,15.27595428,.0000159,43.0064,154.1101,358.8611,1.2240,0,U,66503,999,3397,.43079E-3,.11617E-3,0
STARLINK-35916,2025-263V,2026-06-16T06:31:44.952384,15.27588082,.0001562,43.0064,157.6338,93.9089,266.1942,0,U,66504,999,3393,.51035E-3,.13811E-3,0
STARLINK-34766,2025-263W,2026-06-16T05:29:29.926176,15.27598299,.0006588,43.0155,153.8201,283.3896,76.6222,0,U,66505,999,3397,.48148E-3,.13023E-3,0
STARLINK-34765,2025-263X,2026-06-16T06:12:03.604320,15.27593188,.0000272,43.0062,154.0362,203.7001,156.3838,0,U,66506,999,3397,.41072E-3,.11061E-3,0
STARLINK-34767,2025-263Y,2026-06-15T16:30:32.819040,15.27588951,.00028878,43.0011,157.5024,263.0368,97.0156,0,U,66507,999,3388,.74029666E-3,.20172E-3,0
STARLINK-35608,2025-263Z,2026-06-16T06:21:18.420192,15.27615342,.000134,43.0047,154.0841,116.2138,243.8852,0,U,66508,999,3397,.70848E-3,.19305E-3,0
STARLINK-35598,2025-263AA,2026-06-15T16:47:13.310304,15.27583058,.00007334,42.9933,157.5807,90.3484,269.7452,0,U,66509,999,3388,.47688899E-3,.12885E-3,0
STARLINK-35600,2025-263AB,2026-06-15T16:41:39.642144,15.27588631,.00012097,43.0019,157.5565,286.5169,73.5550,0,U,66510,999,3388,.48437366E-3,.13094E-3,0
STARLINK-35444,2025-263AC,2026-06-15T15:49:50.723040,15.27587422,.00019804,43.0026,157.2764,273.7322,86.3303,0,U,66511,999,3388,.71379872E-3,.19437E-3,0
STARLINK-35366,2025-263AD,2026-06-16T06:17:36.527712,15.27596143,.0000231,43.0036,154.0586,177.5306,182.5547,0,U,66512,999,3397,.43555E-3,.11748E-3,0
STARLINK-35692,2025-263AE,2026-06-16T06:28:42.701088,15.27576991,.0001156,43.0002,154.1178,260.2597,99.8124,0,U,66513,999,3397,.45821E-4,.999E-5,0
STARLINK-35924,2025-265A,2026-06-15T11:44:22.729344,15.27595020,.00043152,43.0058,85.3609,265.9174,94.1185,0,U,66516,999,3207,.69938097E-3,.19045E-3,0
STARLINK-35937,2025-265B,2026-06-16T10:56:35.190240,15.27587946,.00031584,42.9911,80.5755,270.6184,89.4305,0,U,66517,999,3221,.69885902E-3,.19025E-3,0
STARLINK-35962,2025-265C,2026-06-16T10:43:39.328608,15.27599420,.00010179,43.0122,80.5118,131.6908,228.4031,0,U,66518,999,3221,.76617636E-3,.20893E-3,0
STARLINK-35931,2025-265D,2026-06-16T00:54:39.131424,15.27572888,.00014617,43.0037,82.5937,263.4324,96.6361,0,U,66519,999,3215,.36968481E-4,.755E-5,0
STARLINK-35952,2025-265E,2026-06-16T01:07:36.549984,15.27580177,.00000469,42.9968,82.6639,77.0147,283.0710,0,U,66520,999,3215,.73138486E-3,.19919E-3,0
STARLINK-35915,2025-265F,2026-06-16T00:52:48.312192,15.27577597,.00042992,43.0054,82.5881,278.7717,81.2648,0,U,66521,999,3215,.62793613E-3,.17059E-3,0
STARLINK-35946,2025-265G,2026-06-16T01:15:00.556128,15.27590039,.00005672,43.0088,82.7035,260.5238,99.5550,0,U,66522,999,3215,.64460579E-3,.17523E-3,0
STARLINK-35969,2025-265H,2026-06-16T11:38:57.196608,15.27589372,.00006481,43.0064,79.9296,290.6537,69.4246,0,U,66523,999,3222,.7370161E-3,.2008E-3,0
STARLINK-35687,2025-265J,2026-06-16T10:52:53.049792,15.27593364,.00030834,42.9913,80.5579,270.6411,89.4087,0,U,66524,999,3221,.57682785E-3,.15652E-3,0
STARLINK-35975,2025-265K,2026-06-16T11:40:47.863776,15.27590106,.00016457,43.0035,79.9436,270.9254,89.1409,0,U,66525,999,3222,.52257667E-3,.1415E-3,0
STARLINK-35932,2025-265L,2026-06-16T11:37:04.012608,15.27605868,.0005945,43.0285,79.9215,272.8821,87.1351,0,U,66526,999,3222,.58514595E-3,.15892E-3,0
STARLINK-35935,2025-265M,2026-06-15T01:33:24.574464,15.27593478,.00017746,43.0082,88.1937,278.8631,81.2020,0,U,66527,999,3200,.67622135E-3,.184E-3,0
STARLINK-35928,2025-265N,2026-06-16T11:27:50.937696,15.27586083,.00004301,43.0043,79.8679,289.5389,70.5417,0,U,66528,999,3222,.49374853E-3,.13352E-3,0
STARLINK-35933,2025-265P,2026-06-16T10:47:21.487200,15.27601831,.00015904,42.9983,80.5259,275.2148,84.8522,0,U,66529,999,3221,.62610511E-3,.17018E-3,0
STARLINK-35961,2025-265Q,2026-06-15T01:29:42.224064,15.27601641,.00031194,43.0071,88.1774,275.0669,84.9827,0,U,66530,999,3200,.87798856E-3,.23994E-3,0
STARLINK-35960,2025-265R,2026-06-15T02:12:03.164256,15.27586933,.00010172,43.0046,87.5343,271.5430,88.5305,0,U,66531,999,3201,.57067713E-3,.15478E-3,0
STARLINK-35914,2025-265S,2026-06-15T01:31:33.336192,15.27598850,.00018516,43.0071,88.1860,269.1485,90.9155,0,U,66532,999,3200,.81842992E-3,.22341E-3,0
STARLINK-35707,2025-265T,2026-06-16T00:47:15.208224,15.27592978,.00044127,43.0080,82.5575,277.7152,82.3198,0,U,66533,999,3215,.79858747E-3,.21791E-3,0
STARLINK-35976,2025-265U,2026-06-16T10:51:00.801504,15.27616773,.00024757,43.0005,80.5403,279.3670,80.6902,0,U,66534,999,3221,.47799921E-3,.12929E-3,0
STARLINK-35514,2025-265V,2026-06-16T10:45:29.683872,15.27598005,.00017417,43.0053,80.5103,271.9900,88.0752,0,U,66535,999,3221,.72908557E-3,.19866E-3,0
STARLINK-35640,2025-265W,2026-06-15T01:27:51.492960,15.27591219,.00014941,43.0079,88.1617,278.2249,81.8433,0,U,66536,999,3200,.56930556E-3,.15442E-3,0
STARLINK-35582,2025-265X,2026-06-16T00:49:06.193344,15.27626093,.00005281,43.0056,82.5618,215.3039,144.7778,0,U,66537,999,3215,.64311929E-3,.17502E-3,0
STARLINK-35577,2025-265Y,2026-06-16T14:00:01.000224,15.27562908,.0001532,43.0040,79.4065,269.1811,256.1795,0,U,66538,999,576,.41697177E-3,.11224E-3,0
STARLINK-35697,2025-265Z,2026-06-16T11:33:24.596352,15.27585760,.00011963,43.0023,79.8951,81.1820,278.9167,0,U,66539,999,3222,.50113836E-3,.13556E-3,0
STARLINK-35818,2025-265AA,2026-06-16T10:58:26.450976,15.27598268,.0001747,42.9973,80.5777,265.4815,94.5837,0,U,66540,999,3221,.71799652E-3,.19559E-3,0
STARLINK-35796,2025-265AB,2026-06-16T00:58:21.292608,15.27582840,.00043232,43.0028,82.6119,277.5848,82.4513,0,U,66541,999,3215,.52358473E-3,.14177E-3,0
STARLINK-35833,2025-265AC,2026-06-16T01:37:12.346464,15.27595700,.00003956,43.0062,82.8184,213.4431,146.6396,0,U,66542,999,3215,.4894179E-3,.13236E-3,0
STARLINK-35315,2025-265AD,2026-06-16T10:36:15.125472,15.27596502,.00005945,43.0084,80.4656,129.4717,230.6187,0,U,66543,999,3221,.83083287E-3,.22682E-3,0
STARLINK-35728,2025-265AE,2026-06-16T11:22:17.085504,15.27613424,.00012092,43.0033,79.8362,267.9430,92.1284,0,U,66544,999,3222,.64337438E-3,.17502E-3,0
STARLINK-35699,2025-268A,2026-06-16T05:15:34.839072,15.27599568,.00008004,42.9944,151.0438,176.2070,183.8788,0,U,66557,999,3302,.50059774E-3,.13547E-3,0
STARLINK-35695,2025-268B,2026-06-15T16:36:48.596832,15.27578197,.00026153,42.9998,153.9745,80.1187,279.9959,0,U,66558,999,3294,.44567527E-3,.12021E-3,0
STARLINK-35419,2025-268C,2026-06-16T06:12:44.324640,15.27614088,.0000639,43.0017,150.4819,253.4750,106.6032,0,U,66559,999,3303,.63249E-3,.17201E-3,0
STARLINK-35411,2025-268D,2026-06-16T06:09:01.486944,15.27577605,.0000849,43.0015,150.4630,264.4608,95.6147,0,U,66560,999,3303,.64219E-3,.1745E-3,0
STARLINK-35305,2025-268E,2026-06-15T15:50:31.121088,15.27584554,.00017224,42.9973,153.7259,274.7231,85.3424,0,U,66561,999,3294,.57995153E-3,.15733E-3,0
STARLINK-35579,2025-268F,2026-06-16T06:03:28.870272,15.27595680,.0000325,43.0032,150.4335,143.8256,216.2618,0,U,66562,999,3303,.44349E-3,.11968E-3,0
